{
    "links": {
        "self": "http://www.neowsapp.com/rest/v1/neo/54062084?api_key=iIulBulltgU6a56xZRHN4H3l9WmuAYTsLGpBGhQ2"
    },
    "id": "54062084",
    "neo_reference_id": "54062084",
    "name": "(2020 TT4)",
    "designation": "2020 TT4",
    "nasa_jpl_url": "http://ssd.jpl.nasa.gov/sbdb.cgi?sstr=54062084",
    "absolute_magnitude_h": 27.188,
    "estimated_diameter": {
        "kilometers": {
            "estimated_diameter_min": 0.0097040936,
            "estimated_diameter_max": 0.0216990129
        },
        "meters": {
            "estimated_diameter_min": 9.704093595,
            "estimated_diameter_max": 21.6990129385
        },
        "miles": {
            "estimated_diameter_min": 0.0060298423,
            "estimated_diameter_max": 0.0134831374
        },
        "feet": {
            "estimated_diameter_min": 31.8375784303,
            "estimated_diameter_max": 71.1909896092
        }
    },
    "is_potentially_hazardous_asteroid": false,
    "close_approach_data": [
        {
            "close_approach_date": "1946-06-19",
            "close_approach_date_full": "1946-Jun-19 17:59",
            "epoch_date_close_approach": -742716060000,
            "relative_velocity": {
                "kilometers_per_second": "18.4337460858",
                "kilometers_per_hour": "66361.485908713",
                "miles_per_hour": "41234.4466192222"
            },
            "miss_distance": {
                "astronomical": "0.4178925496",
                "lunar": "162.5602017944",
                "kilometers": "62515835.309029352",
                "miles": "38845538.7694629776"
            },
            "orbiting_body": "Earth"
        },
        {
            "close_approach_date": "2020-10-12",
            "close_approach_date_full": "2020-Oct-12 03:30",
            "epoch_date_close_approach": 1602473400000,
            "relative_velocity": {
                "kilometers_per_second": "9.623557028",
                "kilometers_per_hour": "34644.8053006431",
                "miles_per_hour": "21526.9347158357"
            },
            "miss_distance": {
                "astronomical": "0.0085978914",
                "lunar": "3.3445797546",
                "kilometers": "1286226.239931318",
                "miles": "799223.9249874684"
            },
            "orbiting_body": "Earth"
        },
        {
            "close_approach_date": "2029-10-27",
            "close_approach_date_full": "2029-Oct-27 08:47",
            "epoch_date_close_approach": 1887785220000,
            "relative_velocity": {
                "kilometers_per_second": "14.1057803192",
                "kilometers_per_hour": "50780.8091489566",
                "miles_per_hour": "31553.2199959169"
            },
            "miss_distance": {
                "astronomical": "0.1842538032",
                "lunar": "71.6747294448",
                "kilometers": "27563976.498119184",
                "miles": "17127460.7850213792"
            },
            "orbiting_body": "Earth"
        },
        {
            "close_approach_date": "2085-06-18",
            "close_approach_date_full": "2085-Jun-18 06:56",
            "epoch_date_close_approach": 3643685760000,
            "relative_velocity": {
                "kilometers_per_second": "4.0144799886",
                "kilometers_per_hour": "14452.1279590999",
                "miles_per_hour": "8979.9902865863"
            },
            "miss_distance": {
                "astronomical": "0.4096870209",
                "lunar": "159.3682511301",
                "kilometers": "61288305.693285483",
                "miles": "38082787.2354983454"
            },
            "orbiting_body": "Earth"
        },
        {
            "close_approach_date": "2085-10-17",
            "close_approach_date_full": "2085-Oct-17 01:17",
            "epoch_date_close_approach": 3654119820000,
            "relative_velocity": {
                "kilometers_per_second": "10.5188987672",
                "kilometers_per_hour": "37868.0355618401",
                "miles_per_hour": "23529.7246523"
            },
            "miss_distance": {
                "astronomical": "0.0441145491",
                "lunar": "17.1605595999",
                "kilometers": "6599442.581370417",
                "miles": "4100703.4679170746"
            },
            "orbiting_body": "Earth"
        }
    ],
    "orbital_data": {
        "orbit_id": "3",
        "orbit_determination_date": "2020-10-18 08:06:51",
        "first_observation_date": "2020-10-12",
        "last_observation_date": "2020-10-17",
        "data_arc_in_days": 5,
        "observations_used": 26,
        "orbit_uncertainty": "7",
        "minimum_orbit_intersection": ".00881499",
        "jupiter_tisserand_invariant": "4.493",
        "epoch_osculation": "2459000.5",
        "eccentricity": ".3598262291628527",
        "semi_major_axis": "1.479966944349571",
        "inclination": "10.97061412603911",
        "ascending_node_longitude": "20.52055433759291",
        "orbital_period": "657.6221761190303",
        "perihelion_distance": ".9474360194785957",
        "perihelion_argument": "320.1472198531865",
        "aphelion_distance": "2.012497869220547",
        "perihelion_time": "2459102.773212028463",
        "mean_anomaly": "304.0129033550377",
        "mean_motion": ".5474267947053532",
        "equinox": "J2000",
        "orbit_class": {
            "orbit_class_type": "APO",
            "orbit_class_description": "Near-Earth asteroid orbits which cross the Earth’s orbit similar to that of 1862 Apollo",
            "orbit_class_range": "a (semi-major axis) > 1.0 AU; q (perihelion) < 1.017 AU"
        }
    },
    "is_sentry_object": false
}